{
  "type": "FeatureCollection",
  "features": [
    {
      "type": "Feature",
      "properties": {
        "norad_id": 2807,
        "name": "OPS 7218 (TRANSIT 16)",
        "group": "nnss",
        "lat": -77.72343356107906,
        "lon": -7.781349632674537,
        "alt_km": 1093.1927071576738,
        "timestamp": "2025-12-21T14:40:48.185053+00:00",
        "meta_object_name": "OPS 7218 (TRANSIT 16)",
        "meta_object_id": "1967-048A",
        "meta_epoch": "2025-12-21T06:13:50.404224",
        "meta_mean_motion": 13.50723989,
        "meta_eccentricity": 0.0022159,
        "meta_inclination": 89.6731,
        "meta_ra_of_asc_node": 353.7336,
        "meta_arg_of_pericenter": 91.3686,
        "meta_mean_anomaly": 280.0841,
        "meta_ephemeris_type": 0,
        "meta_classification_type": "U",
        "meta_norad_cat_id": 2807,
        "meta_element_set_no": 999,
        "meta_rev_at_epoch": 88391,
        "meta_bstar": 0.00015011834,
        "meta_mean_motion_dot": 1.07e-06,
        "meta_mean_motion_ddot": 0,
        "tle_line1": "1 02807U 67048A   25355.25961116  .00000107  00000+0  15012-3 0  9992",
        "tle_line2": "2 02807  89.6731 353.7336 0022159  91.3686 280.0841 13.50723989883914"
      },
      "geometry": {
        "type": "Point",
        "coordinates": [
          -7.781349632674537,
          -77.72343356107906
        ]
      }
    },
    {
      "type": "Feature",
      "properties": {
        "norad_id": 2965,
        "name": "OPS 4947 (TRANSIT 17)",
        "group": "nnss",
        "lat": 73.54697232585323,
        "lon": 26.30534883399718,
        "alt_km": 1076.96077881359,
        "timestamp": "2025-12-21T14:40:48.185075+00:00",
        "meta_object_name": "OPS 4947 (TRANSIT 17)",
        "meta_object_id": "1967-092A",
        "meta_epoch": "2025-12-21T04:00:48.652128",
        "meta_mean_motion": 13.53455665,
        "meta_eccentricity": 0.00467789,
        "meta_inclination": 89.2487,
        "meta_ra_of_asc_node": 23.7927,
        "meta_arg_of_pericenter": 209.4251,
        "meta_mean_anomaly": 220.3395,
        "meta_ephemeris_type": 0,
        "meta_classification_type": "U",
        "meta_norad_cat_id": 2965,
        "meta_element_set_no": 999,
        "meta_rev_at_epoch": 87211,
        "meta_bstar": 0.00018220255,
        "meta_mean_motion_dot": 1.34e-06,
        "meta_mean_motion_ddot": 0,
        "tle_line1": "1 02965U 67092A   25355.16722977  .00000134  00000+0  18220-3 0  9990",
        "tle_line2": "2 02965  89.2487  23.7927 0046778 209.4251 220.3395 13.53455665872113"
      },
      "geometry": {
        "type": "Point",
        "coordinates": [
          26.30534883399718,
          73.54697232585323
        ]
      }
    },
    {
      "type": "Feature",
      "properties": {
        "norad_id": 3133,
        "name": "OPS 7034 (TRANSIT 18)",
        "group": "nnss",
        "lat": 16.680877281635876,
        "lon": 93.6725958247895,
        "alt_km": 1014.648569875757,
        "timestamp": "2025-12-21T14:40:48.185090+00:00",
        "meta_object_name": "OPS 7034 (TRANSIT 18)",
        "meta_object_id": "1968-012A",
        "meta_epoch": "2025-12-21T07:19:02.712864",
        "meta_mean_motion": 13.51567649,
        "meta_eccentricity": 0.00746678,
        "meta_inclination": 90.0284,
        "meta_ra_of_asc_node": 273.6632,
        "meta_arg_of_pericenter": 144.4691,
        "meta_mean_anomaly": 326.6816,
        "meta_ephemeris_type": 0,
        "meta_classification_type": "U",
        "meta_norad_cat_id": 3133,
        "meta_element_set_no": 999,
        "meta_rev_at_epoch": 57034,
        "meta_bstar": 0.00018631671,
        "meta_mean_motion_dot": 1.33e-06,
        "meta_mean_motion_ddot": 0,
        "tle_line1": "1 03133U 68012A   25355.30489251  .00000133  00000+0  18632-3 0  9998",
        "tle_line2": "2 03133  90.0284 273.6632 0074667 144.4691 326.6816 13.51567649570341"
      },
      "geometry": {
        "type": "Point",
        "coordinates": [
          93.6725958247895,
          16.680877281635876
        ]
      }
    },
    {
      "type": "Feature",
      "properties": {
        "norad_id": 4507,
        "name": "NNSS 19 (TRANSIT 19)",
        "group": "nnss",
        "lat": 54.764567233328215,
        "lon": 54.547020755378966,
        "alt_km": 1161.715422800351,
        "timestamp": "2025-12-21T14:40:48.185102+00:00",
        "meta_object_name": "NNSS 19 (TRANSIT 19)",
        "meta_object_id": "1970-067A",
        "meta_epoch": "2025-12-21T03:23:04.186752",
        "meta_mean_motion": 13.51316689,
        "meta_eccentricity": 0.01702322,
        "meta_inclination": 90.005,
        "meta_ra_of_asc_node": 234.5397,
        "meta_arg_of_pericenter": 268.7928,
        "meta_mean_anomaly": 89.3717,
        "meta_ephemeris_type": 0,
        "meta_classification_type": "U",
        "meta_norad_cat_id": 4507,
        "meta_element_set_no": 999,
        "meta_rev_at_epoch": 72335,
        "meta_bstar": 0.00013582104,
        "meta_mean_motion_dot": 1.04e-06,
        "meta_mean_motion_ddot": 0,
        "tle_line1": "1 04507U 70067A   25355.14102068  .00000104  00000+0  13582-3 0  9994",
        "tle_line2": "2 04507  90.0050 234.5397 0170232 268.7928  89.3717 13.51316689723350"
      },
      "geometry": {
        "type": "Point",
        "coordinates": [
          54.547020755378966,
          54.764567233328215
        ]
      }
    },
    {
      "type": "Feature",
      "properties": {
        "norad_id": 6909,
        "name": "NNSS 20 (TRANSIT 20)",
        "group": "nnss",
        "lat": 57.49290411751185,
        "lon": 74.69545316495987,
        "alt_km": 948.7401188307704,
        "timestamp": "2025-12-21T14:40:48.185113+00:00",
        "meta_object_name": "NNSS 20 (TRANSIT 20)",
        "meta_object_id": "1973-081A",
        "meta_epoch": "2025-12-21T03:35:37.798656",
        "meta_mean_motion": 13.7143837,
        "meta_eccentricity": 0.01563802,
        "meta_inclination": 89.8562,
        "meta_ra_of_asc_node": 254.9282,
        "meta_arg_of_pericenter": 53.4084,
        "meta_mean_anomaly": 308.1351,
        "meta_ephemeris_type": 0,
        "meta_classification_type": "U",
        "meta_norad_cat_id": 6909,
        "meta_element_set_no": 999,
        "meta_rev_at_epoch": 80476,
        "meta_bstar": 0.00023688419,
        "meta_mean_motion_dot": 2.44e-06,
        "meta_mean_motion_ddot": 0,
        "tle_line1": "1 06909U 73081A   25355.14974304  .00000244  00000+0  23688-3 0  9994",
        "tle_line2": "2 06909  89.8562 254.9282 0156380  53.4084 308.1351 13.71438370804766"
      },
      "geometry": {
        "type": "Point",
        "coordinates": [
          74.69545316495987,
          57.49290411751185
        ]
      }
    },
    {
      "type": "Feature",
      "properties": {
        "norad_id": 10457,
        "name": "TRANSAT",
        "group": "nnss",
        "lat": 55.394933170604155,
        "lon": 78.79358684129289,
        "alt_km": 1077.144659392652,
        "timestamp": "2025-12-21T14:40:48.185124+00:00",
        "meta_object_name": "TRANSAT",
        "meta_object_id": "1977-106A",
        "meta_epoch": "2025-12-21T04:01:21.737280",
        "meta_mean_motion": 13.48944805,
        "meta_eccentricity": 0.00261882,
        "meta_inclination": 89.6479,
        "meta_ra_of_asc_node": 78.2987,
        "meta_arg_of_pericenter": 165.4094,
        "meta_mean_anomaly": 255.1866,
        "meta_ephemeris_type": 0,
        "meta_classification_type": "U",
        "meta_norad_cat_id": 10457,
        "meta_element_set_no": 999,
        "meta_rev_at_epoch": 36857,
        "meta_bstar": 0.00011868339,
        "meta_mean_motion_dot": 8.5e-07,
        "meta_mean_motion_ddot": 0,
        "tle_line1": "1 10457U 77106A   25355.16761270  .00000085  00000+0  11868-3 0  9997",
        "tle_line2": "2 10457  89.6479  78.2987 0026188 165.4094 255.1866 13.48944805368575"
      },
      "geometry": {
        "type": "Point",
        "coordinates": [
          78.79358684129289,
          55.394933170604155
        ]
      }
    },
    {
      "type": "Feature",
      "properties": {
        "norad_id": 12458,
        "name": "NOVA 1",
        "group": "nnss",
        "lat": -38.88512221157407,
        "lon": -88.62136838885621,
        "alt_km": 1187.3947165269574,
        "timestamp": "2025-12-21T14:40:48.185135+00:00",
        "meta_object_name": "NOVA 1",
        "meta_object_id": "1981-044A",
        "meta_epoch": "2025-12-21T01:45:26.265024",
        "meta_mean_motion": 13.23279246,
        "meta_eccentricity": 0.0015849,
        "meta_inclination": 89.8527,
        "meta_ra_of_asc_node": 91.2674,
        "meta_arg_of_pericenter": 83.5202,
        "meta_mean_anomaly": 91.57,
        "meta_ephemeris_type": 0,
        "meta_classification_type": "U",
        "meta_norad_cat_id": 12458,
        "meta_element_set_no": 999,
        "meta_rev_at_epoch": 15296,
        "meta_bstar": 9.3150425e-05,
        "meta_mean_motion_dot": 4.9e-07,
        "meta_mean_motion_ddot": 0,
        "tle_line1": "1 12458U 81044A   25355.07322066  .00000049  00000+0  93150-4 0  9997",
        "tle_line2": "2 12458  89.8527  91.2674 0015849  83.5202  91.5700 13.23279246152961"
      },
      "geometry": {
        "type": "Point",
        "coordinates": [
          -88.62136838885621,
          -38.88512221157407
        ]
      }
    }
  ]
}